{
  "norad_id": 62036,
  "name": "STARLINK-32225",
  "history": [
    {
      "epoch": "2026-03-28T20:20:22.616736Z",
      "apogee_km": 483.93031629259167,
      "perigee_km": 482.0798662705729,
      "latitude_deg": -1.754726289859118e-05,
      "longitude_deg": 16.937990640710126,
      "height_km": 482.19933408353876,
      "semi_major_axis_km": 6861.142091281582,
      "eccentricity": 0.00013485,
      "inclination_deg": 42.9956,
      "raan_deg": 148.2943,
      "arg_perigee_deg": 308.9593,
      "mean_anomaly_deg": 51.1138,
      "mean_motion_rev_day": 15.27594696
    }
  ]
}