{"fetched_at":"2026-03-29T16:36:15Z","count":15609,"tles":[{"name":"STARLINK-32225","line1":"1 62036U 24216E   26087.84748399  .00034499  00000+0  12568-2 0  9999","line2":"2 62036  42.9956 148.2943 0001348 308.9593  51.1138 15.27594696 76879","category":"Starlink"}]}